0 FENGYUN 1C DEB
1 30388U 99025ADB 13281.26006927  .00000475  00000-0  21669-3 0  7153
2 30388 098.9999 283.9258 0243925 134.4424 354.0549 14.11550307345606
0 FENGYUN 1C DEB
1 30388U 99025ADB 13282.47011972  .00000503  00000-0  22846-3 0  7164
2 30388 098.9998 285.1406 0243960 131.0486 023.0006 14.11555425345779
0 FENGYUN 1C DEB
1 30388U 99025ADB 13283.72699736  .00000587  00000-0  26342-3 0  7171
2 30388 098.9996 286.4025 0243977 127.5155 289.9348 14.11555303345956
0 FENGYUN 1C DEB
1 30388U 99025ADB 13285.00469199  .00000726  00000-0  32105-3 0  7182
2 30388 098.9993 287.6852 0243999 123.9263 302.6580 14.11554475346139
0 FENGYUN 1C DEB
1 30388U 99025ADB 13286.85802206  .00001002  00000-0  43572-3 0  7195
2 30388 098.9992 289.5455 0244026 118.7215 000.5259 14.11555789346393
0 FENGYUN 1C DEB
1 30388U 99025ADB 13289.48688852  .00000801  00000-0  35211-3 0  7216
2 30388 098.9991 292.1843 0244015 111.3411 039.3638 14.11565796346769
0 FENGYUN 1C DEB
1 30388U 99025ADB 13290.67552501  .00000821  00000-0  36056-3 0  7221
2 30388 098.9992 293.3774 0243996 107.9990 319.5679 14.11568749346934
0 FENGYUN 1C DEB
1 30388U 99025ADB 13291.94972946  .00000841  00000-0  36879-3 0  7237
2 30388 098.9995 294.6563 0243986 104.4143 314.6178 14.11570207347111
0 FENGYUN 1C DEB
1 30388U 99025ADB 13293.01402042  .00001004  00000-0  43664-3 0  7245
2 30388 098.9997 295.7243 0244008 101.4304 322.9634 14.11571092347260
0 FENGYUN 1C DEB
1 30388U 99025ADB 13294.86744366  .00001311  00000-0  56444-3 0  7259
2 30388 098.9998 297.5847 0244002 096.2291 021.4160 14.11573674347523
